OBJECT_NAME,OBJECT_ID,EPOCH,MEAN_MOTION,ECCENTRICITY,INCLINATION,RA_OF_ASC_NODE,ARG_OF_PERICENTER,MEAN_ANOMALY,EPHEMERIS_TYPE,CLASSIFICATION_TYPE,NORAD_CAT_ID,ELEMENT_SET_NO,REV_AT_EPOCH,BSTAR,MEAN_MOTION_DOT,MEAN_MOTION_DDOT
ALOS-2,2014-029A,2026-06-30T20:50:50.445024,14.79474729,.0001598,97.9232,278.8362,87.5110,272.6284,0,U,39766,999,65360,.10488E-3,.732E-5,0
KAZEOSAT 2,2014-033A,2026-07-01T13:51:54.441216,14.85486483,.00070107,97.5393,21.4286,273.6806,86.3608,0,U,40010,999,65109,.97327044E-4,.79E-5,0
HODOYOSHI-4,2014-033B,2026-07-01T15:00:02.490048,14.88160094,.00219532,97.5450,6.7508,257.5453,102.3308,0,U,40011,999,65095,.96765988E-4,.843E-5,0
DEIMOS-2,2014-033D,2026-07-01T14:03:04.550112,14.93759845,.00007809,97.5808,56.5675,66.2732,293.8570,0,U,40013,999,63987,.93156292E-4,.933E-5,0
HODOYOSHI-3,2014-033F,2026-07-01T11:11:02.214240,14.85416745,.00316182,97.6431,344.9329,309.2387,50.6024,0,U,40015,999,64974,.12723649E-3,.1052E-4,0
SPOT 7,2014-034A,2026-07-01T15:11:05.781120,14.60971761,.00014255,98.0626,244.7521,95.3462,264.7902,0,U,40053,999,63924,.15862559E-3,.732E-5,0
SKYSAT-B,2014-037D,2026-07-01T10:44:58.450272,14.88064047,.00045216,98.3845,142.2264,221.7342,138.3528,0,U,40072,999,64808,.16986978E-3,.15E-4,0
WORLDVIEW-3 (WV-3),2014-048A,2026-07-01T12:27:45.092160,14.85045403,.00001979,97.8564,257.1542,166.4411,193.6809,0,U,40115,999,64403,.11683113E-3,.944E-5,0
GAOFEN-2,2014-049A,2026-07-01T15:15:29.957760,14.80914253,.00071216,98.0108,246.8290,175.4231,184.7048,0,U,40118,999,64137,.74389574E-4,.522E-5,0
YAOGAN-21,2014-053A,2026-07-01T15:35:41.257248,15.26589675,.00092444,97.1462,222.2657,51.0585,309.1477,0,U,40143,999,65716,.40629765E-3,.10582E-3,0
YAOGAN-22,2014-063A,2026-07-01T06:07:23.446272,13.15531274,.00066412,100.7742,333.7630,154.5728,205.5711,0,U,40275,999,56166,-.48339206E-4,-.65E-6,0
ASNARO,2014-070A,2026-07-01T13:56:24.897408,15.19651529,.00066526,97.3453,258.3072,123.4558,236.7314,0,U,40298,999,64619,.58117971E-3,.12343E-3,0
YAOGAN-24,2014-072A,2026-07-01T14:06:27.972864,14.76101503,.00135394,98.1508,320.0476,214.3862,145.6472,0,U,40310,999,62584,.5596835E-4,.333E-5,0
CBERS 4,2014-079A,2026-07-01T14:31:03.313344,14.35514040,.00013946,98.3527,238.9839,50.8676,309.2634,0,U,40336,999,60602,.15543499E-3,.405E-5,0
YAOGAN-26,2014-088A,2026-07-01T14:48:20.759616,15.47926995,.00041616,97.0636,182.4933,32.8590,327.2919,0,U,40362,999,63993,.30721579E-3,.15942E-3,0
SMAP,2015-003A,2026-07-01T13:48:53.668224,14.63379250,.00014647,98.1277,189.4663,97.7075,262.4294,0,U,40376,999,60972,.98268204E-4,.461E-5,0
KOMPSAT-3A,2015-014A,2026-07-01T14:21:38.443968,15.54720940,.00571353,97.6885,175.0211,123.2855,237.3890,0,U,40536,999,62405,.49135149E-3,.35042E-3,0
SENTINEL-2A,2015-028A,2026-07-01T14:53:12.961824,14.30819879,.00012093,98.5688,257.2671,93.9892,266.1429,0,U,40697,999,57579,.13335022E-3,.306E-5,0
GAOFEN-8,2015-030A,2026-07-01T15:34:37.270272,15.46492441,.00098149,97.6891,16.8914,137.8299,222.3706,0,U,40701,999,61368,.71358094E-3,.3548E-3,0
CARBONITE 1 (CBNT-1),2015-032D,2026-07-01T14:46:35.526144,14.83629184,.00129568,97.6507,0.0782,245.4843,114.5021,0,U,40718,999,59148,.14107996E-3,.1114E-4,0
YAOGAN-27,2015-040A,2026-07-01T14:59:21.709248,13.16072025,.00081003,100.1154,168.3809,175.7878,184.3305,0,U,40878,999,51956,.10370573E-2,.352E-5,0
GAOFEN-9 01,2015-047A,2026-07-01T15:18:12.809664,14.82912401,.00288937,97.6268,217.6755,92.6939,267.7583,0,U,40894,999,58233,.14307675E-3,.1118E-4,0
YAOGAN-28,2015-064A,2026-07-01T14:29:11.526432,15.27604604,.0011754,97.3096,320.5736,135.2279,224.9912,0,U,41026,999,59288,.3202002E-3,.8588E-4,0
YAOGAN-29,2015-069A,2026-07-01T14:46:56.220672,14.83095162,.00018174,98.0019,211.2710,30.2658,329.8660,0,U,41038,999,57276,.5314846E-5,-.11E-6,0
KENT RIDGE 1,2015-077B,2026-07-01T07:23:32.548704,15.23213743,.0008148,14.9781,160.9621,78.3811,281.7425,0,U,41167,999,58325,.13848E-3,.4143E-4,0
GAOFEN-4,2015-083A,2026-07-01T14:31:54.862176,1.00268667,.00042432,0.3936,83.8387,111.7154,47.7566,0,U,41194,999,3867,0,-.324E-5,0
JASON-3,2016-002A,2026-07-01T14:30:45.931392,12.87623241,.00083303,66.0417,95.5252,271.9740,88.0324,0,U,41240,999,48910,.1207484E-3,-.32E-6,0
SENTINEL-3A,2016-011A,2026-07-01T14:14:12.138720,14.26736563,.00014349,98.6244,249.7696,95.1445,264.9899,0,U,41335,999,54011,.64324659E-4,.112E-5,0
ZIYUAN 3-02 (ZY 3-02),2016-033A,2026-07-01T15:51:18.664416,15.21317324,.00127961,97.3834,258.1565,234.5107,125.4935,0,U,41556,999,56018,.26778866E-3,.5937E-4,0
CARTOSAT-2C,2016-040A,2026-07-01T14:47:47.595840,15.19308085,.00105377,97.4480,242.3962,88.1494,272.0947,0,U,41599,999,55590,.32284433E-3,.6758E-4,0
