ALOS-2                  
1 39766U 14029A   26181.86863941  .00000732  00000+0  10488-3 0  9995
2 39766  97.9232 278.8362 0001598  87.5110 272.6284 14.79474729653601
KAZEOSAT 2              
1 40010U 14033A   26182.57771344  .00000790  00000+0  97327-4 0  9990
2 40010  97.5393  21.4286 0007010 273.6806  86.3608 14.85486483651099
HODOYOSHI-4             
1 40011U 14033B   26182.62502882  .00000843  00000+0  96766-4 0  9991
2 40011  97.5450   6.7508 0021953 257.5453 102.3308 14.88160094650958
DEIMOS-2                
1 40013U 14033D   26182.58546933  .00000933  00000+0  93156-4 0  9993
2 40013  97.5808  56.5675 0000780  66.2732 293.8570 14.93759845639874
HODOYOSHI-3             
1 40015U 14033F   26182.46599785  .00001052  00000+0  12724-3 0  9999
2 40015  97.6431 344.9329 0031618 309.2387  50.6024 14.85416745649749
SPOT 7                  
1 40053U 14034A   26182.63270580  .00000732  00000+0  15863-3 0  9991
2 40053  98.0626 244.7521 0001425  95.3462 264.7902 14.60971761639247
SKYSAT-B                
1 40072U 14037D   26182.44789873  .00001500  00000+0  16987-3 0  9996
2 40072  98.3845 142.2264 0004521 221.7342 138.3528 14.88064047648084
WORLDVIEW-3 (WV-3)      
1 40115U 14048A   26182.51927190  .00000944  00000+0  11683-3 0  9999
2 40115  97.8564 257.1542 0000197 166.4411 193.6809 14.85045403644035
GAOFEN-2                
1 40118U 14049A   26182.63576340  .00000522  00000+0  74390-4 0  9990
2 40118  98.0108 246.8290 0007121 175.4231 184.7048 14.80914253641377
YAOGAN-21               
1 40143U 14053A   26182.64978307  .00010582  00000+0  40630-3 0  9999
2 40143  97.1462 222.2657 0009244  51.0585 309.1477 15.26589675657162
YAOGAN-22               
1 40275U 14063A   26182.25513248 -.00000065  00000+0 -48339-4 0  9994
2 40275 100.7742 333.7630 0006641 154.5728 205.5711 13.15531274561662
ASNARO                  
1 40298U 14070A   26182.58084372  .00012343  00000+0  58118-3 0  9999
2 40298  97.3453 258.3072 0006652 123.4558 236.7314 15.19651529646196
YAOGAN-24               
1 40310U 14072A   26182.58782376  .00000333  00000+0  55968-4 0  9992
2 40310  98.1508 320.0476 0013539 214.3862 145.6472 14.76101503625842
CBERS 4                 
1 40336U 14079A   26182.60489946  .00000405  00000+0  15543-3 0  9991
2 40336  98.3527 238.9839 0001394  50.8676 309.2634 14.35514040606021
YAOGAN-26               
1 40362U 14088A   26182.61690694  .00015942  00000+0  30722-3 0  9993
2 40362  97.0636 182.4933 0004161  32.8590 327.2919 15.47926995639937
SMAP                    
1 40376U 15003A   26182.57562116  .00000461  00000+0  98268-4 0  9998
2 40376  98.1277 189.4663 0001464  97.7075 262.4294 14.63379250609726
KOMPSAT-3A              
1 40536U 15014A   26182.59836162  .00035042  00000+0  49135-3 0  9996
2 40536  97.6885 175.0211 0057135 123.2855 237.3890 15.54720940624053
SENTINEL-2A             
1 40697U 15028A   26182.62028891  .00000306  00000+0  13335-3 0  9993
2 40697  98.5688 257.2671 0001209  93.9892 266.1429 14.30819879575797
GAOFEN-8                
1 40701U 15030A   26182.64904248  .00035480  00000+0  71358-3 0  9993
2 40701  97.6891  16.8914 0009814 137.8299 222.3706 15.46492441613680
CARBONITE 1 (CBNT-1)    
1 40718U 15032D   26182.61568896  .00001114  00000+0  14108-3 0  9992
2 40718  97.6507   0.0782 0012956 245.4843 114.5021 14.83629184591483
YAOGAN-27               
1 40878U 15040A   26182.62455682  .00000352  00000+0  10371-2 0  9997
2 40878 100.1154 168.3809 0008100 175.7878 184.3305 13.16072025519565
GAOFEN-9 01             
1 40894U 15047A   26182.63764826  .00001118  00000+0  14308-3 0  9992
2 40894  97.6268 217.6755 0028893  92.6939 267.7583 14.82912401582337
YAOGAN-28               
1 41026U 15064A   26182.60360563  .00008588  00000+0  32020-3 0  9995
2 41026  97.3096 320.5736 0011754 135.2279 224.9912 15.27604604592888
YAOGAN-29               
1 41038U 15069A   26182.61592848 -.00000011  00000+0  53148-5 0  9997
2 41038  98.0019 211.2710 0001817  30.2658 329.8660 14.83095162572760
KENT RIDGE 1            
1 41167U 15077B   26182.30801561  .00004143  00000+0  13848-3 0  9990
2 41167  14.9781 160.9621 0008148  78.3811 281.7425 15.23213743583258
GAOFEN-4                
1 41194U 15083A   26182.60549609 -.00000324  00000+0  00000+0 0  9992
2 41194   0.3936  83.8387 0004243 111.7154  47.7566  1.00268667 38677
JASON-3                 
1 41240U 16002A   26182.60469828 -.00000032  00000+0  12075-3 0  9995
2 41240  66.0417  95.5252 0008330 271.9740  88.0324 12.87623241489102
SENTINEL-3A             
1 41335U 16011A   26182.59319605  .00000112  00000+0  64325-4 0  9999
2 41335  98.6244 249.7696 0001434  95.1445 264.9899 14.26736563540115
ZIYUAN 3-02 (ZY 3-02)   
1 41556U 16033A   26182.66063269  .00005937  00000+0  26779-3 0  9998
2 41556  97.3834 258.1565 0012796 234.5107 125.4935 15.21317324560184
CARTOSAT-2C             
1 41599U 16040A   26182.61652310  .00006758  00000+0  32284-3 0  9999
2 41599  97.4480 242.3962 0010537  88.1494 272.0947 15.19308085555905
